id,name,elevation,latitude_dms,longitude_dms,latitude_dd,longitude_dd,cities_id,cod_mapa
1,ESTAÇÃO METEOROLÓGICA AUTOMATICA DE BRASILIA/DF,1159.54,15°47'S,47°55'W,,,882,
2,ESTAÇÃO METEOROLÓGICA AUTOMATICA DE AGUAS EMENDADAS/GO,1200.00,15°35'S,47°37'W,,,882,
3,ESTAÇÃO METEOROLÓGICA AUTOMATICA DE PONTE ALTA (GAMA)/DF,990.00,15°93'S,48°13'W,,,882,
4,ESTAÇÃO METEOROLÓGICA AUTOMATICA DE GOIANIA/GO,770.00,16°38'S,49°13'W,,,977,
5,ESTAÇÃO METEOROLÓGICA AUTOMATICA DE MORRINHOS/GO,771.42,17°43'S,49°06'W,,,1032,
6,ESTAÇÃO METEOROLÓGICA AUTOMATICA DE NIQUELANDIA/GO,583.00,14°27'S,48°27'W,,,1040,
7,ESTAÇÃO METEOROLÓGICA AUTOMATICA DE SÃO SIMÃO/GO,488.51,18°58'S,50°37'W,,,1105,
8,ESTAÇÃO METEOROLÓGICA AUTOMATICA DE LUZIANIA/GO,958.00,16°16'S,47°57'W,,,1017,
9,ESTAÇÃO METEOROLÓGICA AUTOMATICA DE ARAGARÇAS/GO,347.00,15°54'S,52°14'W,,,905,
10,ESTAÇÃO METEOROLÓGICA AUTOMATICA DE GOIÁS/GO,512.00,15°56'S,50°08'W,,,979,
11,ESTAÇÃO METEOROLÓGICA AUTOMATICA DE ITAPACI/GO,522.00,14°58'S,49°32'W,,,1001,
12,ESTAÇÃO METEOROLÓGICA AUTOMATICA DE JATAÍ/GO,582.00,17°55'S,51°43'W,,,1010,
13,ESTAÇÃO METEOROLÓGICA AUTOMATICA DE POSSE/GO,834.00,14°05'S,46°21'W,,,1074,
14,ESTAÇÃO METEOROLÓGICA AUTOMATICA DE GOIANESIA/GO,667.00,15°13'S,48°59'W,,,976,
15,ESTAÇÃO METEOROLÓGICA AUTOMATICA DE CAIAPÔNIA/GO,737.00,16°58'S,51°49'W,,,929,
16,ESTAÇÃO METEOROLÓGICA AUTOMATICA DE ALTO PARAISO GOIAS/GO,1260.00,14°07'S,47°31'W,,,893,
17,ESTAÇÃO METEOROLÓGICA AUTOMATICA DE RIO VERDE/GO,782.00,17°47'S,50°57'W,,,1080,
18,ESTAÇÃO METEOROLÓGICA AUTOMATICA DE MINEIROS/GO,706.00,17°34'S,52°35'W,,,1026,
19,ESTAÇÃO METEOROLÓGICA AUTOMATICA DE PARAUNA/GO,678.00,16°57'S,50°25'W,,,1061,
20,ESTAÇÃO METEOROLÓGICA AUTOMATICA DE IPORA/GO,625.00,16°25'S,51°08'W,,,995,
21,ESTAÇÃO METEOROLÓGICA AUTOMATICA DE MONTE ALEGRE GOIAS/GO,1253.00,13°14'S,46°53'W,,,1028,
22,ESTAÇÃO METEOROLÓGICA AUTOMATICA DE PIRES DO RIO/GO,752.00,17°18'S,48°16'W,,,1068,
23,ESTAÇÃO METEOROLÓGICA AUTOMATICA DE CATALÃO/GO,890.00,18°09'S,47°55'W,,,941,
24,ESTAÇÃO METEOROLÓGICA AUTOMATICA DE ITUMBIARA/GO,488.00,18°24'S,49°11'W,,,1006,
25,ESTAÇÃO METEOROLÓGICA AUTOMATICA DE CRISTALINA/GO,1202.00,16°47'S,47°36'W,,,953,
26,ESTAÇÃO METEOROLÓGICA AUTOMATICA DE SILVANIA/GO,949.00,16°40'S,48°37'W,,,1108,
27,ESTAÇÃO METEOROLÓGICA AUTOMATICA DE CPº. GRANDE/MS,530.00,20°27'S,54°36'W,,,1505,
28,ESTAÇÃO METEOROLÓGICA AUTOMATICA DE PONTA PORÃ/MS,650.00,22°32'S,55°32'W,,,1546,
29,ESTAÇÃO METEOROLÓGICA AUTOMATICA DE TRES LAGOAS/MS,313.00,20°46'S,51°42'W,,,1562,
30,ESTAÇÃO METEOROLÓGICA AUTOMATICA DE IVINHEMA/MS,373.29,22°18'S,53°49'W,,,1527,
31,ESTAÇÃO METEOROLÓGICA AUTOMATICA DE PARANAIBA/MS,424.00,19°41'S,51°10'W,,,1543,
32,ESTAÇÃO METEOROLÓGICA AUTOMATICA DE NHUMIRIM/MS,104.00,18°58'S,56°39'W,,,1511,
33,ESTAÇÃO METEOROLÓGICA AUTOMATICA DE AQUIDAUANA/MS,155.00,20°28'S,55°47'W,,,1494,
34,ESTAÇÃO METEOROLÓGICA AUTOMATICA DE COXIM/MS,252.00,18°30'S,54°44'W,,,1513,
35,ESTAÇÃO METEOROLÓGICA AUTOMATICA DE DOURADOS/MS,469.00,22°11'S,54°54'W,,,1517,
36,ESTAÇÃO METEOROLÓGICA AUTOMATICA DE MIRANDA/MS,140.00,20°23'S,56°25'W,,,1536,
37,ESTAÇÃO METEOROLÓGICA AUTOMATICA DE PORTO MURTINHO/MS,85.00,21°42'S,57°33'W,,,1547,
38,ESTAÇÃO METEOROLÓGICA AUTOMATICA DE CORUMBÁ/MS,126.00,18°59'S,57°38'W,,,1511,
39,ESTAÇÃO METEOROLÓGICA AUTOMATICA DE CHAPADÃO DO SUL/MS,818.00,18°48'S,52°36'W,,,1508,
40,ESTAÇÃO METEOROLÓGICA AUTOMATICA DE MARACAJU/MS,401.00,21°36'S,55°10'W,,,1535,
41,ESTAÇÃO METEOROLÓGICA AUTOMATICA DE S. GABRIEL DO OESTE/MS,647.00,19°25'S,54°33'W,,,1554,
42,ESTAÇÃO METEOROLÓGICA AUTOMATICA DE CASSILANDIA/MS,516.00,19°07'S,51°43'W,,,1507,
43,ESTAÇÃO METEOROLÓGICA AUTOMATICA DE RIO BRILHANTE/MS,329.00,21°46'S,54°31'W,,,1549,
44,ESTAÇÃO METEOROLÓGICA AUTOMATICA DE JUTI/MS,379.00,22°51'S,54°36'W,,,1532,
45,ESTAÇÃO METEOROLÓGICA AUTOMATICA DE AMAMBAI/MS,431.00,23°00'S,55°19'W,,,1488,
46,ESTAÇÃO METEOROLÓGICA AUTOMATICA DE SETE QUEDAS/MS,402.00,23°58'S,55°01'W,,,1556,
47,ESTAÇÃO METEOROLÓGICA AUTOMATICA DE ITAQUIRAI/MS,336.00,23°26'S,54°10'W,,,1526,
48,ESTAÇÃO METEOROLÓGICA AUTOMATICA DE SIDROLANDIA/MS,464.00,20°58'S,54°58'W,,,1557,
49,ESTAÇÃO METEOROLÓGICA AUTOMATICA DE ÁGUA CLARA/MS,338.00,20°26'S,52°52'W,,,1486,
50,ESTAÇÃO METEOROLÓGICA AUTOMATICA DE BELA VISTA/MS,208.00,22°06'S,56°32'W,,,1499,
51,ESTAÇÃO METEOROLÓGICA AUTOMATICA DE JARDIM/MS,249.00,21°28'S,56°08'W,,,1530,
52,ESTAÇÃO METEOROLÓGICA AUTOMATICA DE BATAGUASSU/MS,387.00,21°45'S,52°28'W,,,1497,
53,ESTAÇÃO METEOROLÓGICA AUTOMATICA DE COSTA RICA/MS,730.00,18°29'S,53°10'W,,,1512,
54,ESTAÇÃO METEOROLÓGICA AUTOMATICA DE SONORA/MS,495.00,17°38'S,54°45'W,,,1558,
55,ESTAÇÃO METEOROLÓGICA AUTOMATICA DE CUIABÁ/MT,151.34,15°37'S,56°06'W,,,1383,
56,ESTAÇÃO METEOROLÓGICA AUTOMATICA DE TANGARÁ DA SERRA/MT,321.50,14°39'S,57°25'W,,,1475,
57,ESTAÇÃO METEOROLÓGICA AUTOMATICA DE S.J.DO RIO CLARO/MT,350.00,13°27'S,56°39'W,,,1466,
58,ESTAÇÃO METEOROLÓGICA AUTOMATICA DE SORRISO/MT,380.00,12°33'S,55°43'W,,,1473,
59,ESTAÇÃO METEOROLÓGICA AUTOMATICA DE CPº NOVO DOS PARECIS/MT,570.00,13°47'S,57°50'W,,,1367,
60,ESTAÇÃO METEOROLÓGICA AUTOMATICA DE GUARANTÃ DO NORTE/MT,320.00,09°57'S,54°53'W,,,1393,
61,ESTAÇÃO METEOROLÓGICA AUTOMATICA DE RONDONÓPOLIS/MT,284.00,16°27'S,54°34'W,,,1454,
62,ESTAÇÃO METEOROLÓGICA AUTOMATICA DE ÁGUA BOA/MT,432.00,14°00'S,52°12'W,,,1347,
63,ESTAÇÃO METEOROLÓGICA AUTOMATICA DE ALTO ARAGUAIA/MT,753.00,17°33'S,53°22'W,,,1349,
64,ESTAÇÃO METEOROLÓGICA AUTOMATICA DE APIACAS/MT,220.00,09°33'S,57°23'W,,,1354,
65,ESTAÇÃO METEOROLÓGICA AUTOMATICA DE CAMPO VERDE/MT,749.00,15°31'S,55°08'W,,,1368,
66,ESTAÇÃO METEOROLÓGICA AUTOMATICA DE COMODORO/MT,591.00,13°42'S,59°45'W,,,1379,
67,ESTAÇÃO METEOROLÓGICA AUTOMATICA DE JUARA/MT,260.00,11°16'S,57°31'W,,,1403,
68,ESTAÇÃO METEOROLÓGICA AUTOMATICA DE PARANATINGA/MT,474.00,14°25'S,54°02'W,,,1434,
69,ESTAÇÃO METEOROLÓGICA AUTOMATICA DE QUERÊNCIA/MT,382.00,12°37'S,52°13'W,,,1448,
70,ESTAÇÃO METEOROLÓGICA AUTOMATICA DE SINOP/MT,371.00,11°58'S,55°33'W,,,1472,
71,ESTAÇÃO METEOROLÓGICA AUTOMATICA DE CONFRESA/MT,237.00,10°39'S,51°34'W,,,1380,
72,ESTAÇÃO METEOROLÓGICA AUTOMATICA DE COTRIGUAÇÚ/MT,261.00,09°54'S,58°34'W,,,1382,
73,ESTAÇÃO METEOROLÓGICA AUTOMATICA DE JUÍNA/MT,200.00,11°22'S,58°43'W,,,1404,
74,ESTAÇÃO METEOROLÓGICA AUTOMATICA DE S.FELIX DO ARAGUAIA/MT,218.00,11°37'S,50°43'W,,,1464,
75,ESTAÇÃO METEOROLÓGICA AUTOMATICA DE VILA BELA DA S.TRIND/MT,222.00,15°03'S,59°52'W,,,1484,
76,ESTAÇÃO METEOROLÓGICA AUTOMATICA DE ALTA FLORESTA/MT,289.00,09°50'S,56°06'W,,,1348,
77,ESTAÇÃO METEOROLÓGICA AUTOMATICA DE CARLINDA/MT,2900.00,10°00'S,55°47'W,,,1372,
78,ESTAÇÃO METEOROLÓGICA AUTOMATICA DE NOVO MUNDO/MT,431.00,12°31'S,58°13'W,,,1430,
79,ESTAÇÃO METEOROLÓGICA AUTOMATICA DE NOVA MARINGA/MT,353.00,13°02'S,57°05'W,,,1422,
80,ESTAÇÃO METEOROLÓGICA AUTOMATICA DE NOVA UBIRATÃ/MT,518.00,13°24'S,54°45'W,,,1427,
81,ESTAÇÃO METEOROLÓGICA AUTOMATICA DE GAUCHA DO NORTE/MT,379.00,13°11'S,53°15'W,,,1390,
82,ESTAÇÃO METEOROLÓGICA AUTOMATICA DE STO ANTONIO DO LESTE/MT,648.00,14°55'S,53°53'W,,,1462,
83,ESTAÇÃO METEOROLÓGICA AUTOMATICA DE GUIRATINGA/MT,526.00,16°20'S,53°45'W,,,1394,
84,ESTAÇÃO METEOROLÓGICA AUTOMATICA DE ITIQUIRA/MT,585.00,17°10'S,54°30'W,,,1399,
85,ESTAÇÃO METEOROLÓGICA AUTOMATICA DE ALTO TAQUARI/MT,875.00,17°48'S,53°17'W,,,1353,
86,ESTAÇÃO METEOROLÓGICA AUTOMATICA DE PORTO ESTRELA/MT,145.00,15°21'S,57°13'W,,,1445,
87,ESTAÇÃO METEOROLÓGICA AUTOMATICA DE SALTO DO CEU/MT,303.00,15°08'S,58°06'W,,,1456,
88,ESTAÇÃO METEOROLÓGICA AUTOMATICA DE PONTES E LACERDA/MT,256.00,15°15'S,59°20'W,,,1441,
89,ESTAÇÃO METEOROLÓGICA AUTOMATICA DE CACERES/MT,116.00,16°02'S,57°41'W,,,1365,
90,ESTAÇÃO METEOROLÓGICA AUTOMATICA DE MACEIÓ/AL,64.50,09°33'S,35°46'W,,,147,
91,ESTAÇÃO METEOROLÓGICA AUTOMATICA DE PÃO DE AÇUCAR/AL,19.00,09°45'S,37°26'W,,,168,
92,ESTAÇÃO METEOROLÓGICA AUTOMATICA DE PALMEIRA DOS INDIOS/AL,275.00,09°25'S,36°37'W,,,167,
93,ESTAÇÃO METEOROLÓGICA AUTOMATICA DE ARAPIRACA/AL,241.00,09°48'S,36°37'W,,,103,
94,ESTAÇÃO METEOROLÓGICA AUTOMATICA DE CORURIPE/AL,74.00,10°07'S,36°17'W,,,124,
95,ESTAÇÃO METEOROLÓGICA AUTOMATICA DE SÃO LUIS DO QUITUNDE/AL,19.00,09°17'S,35°33'W,,,191,
96,ESTAÇÃO METEOROLÓGICA AUTOMATICA DE SALVADOR/BA,51.41,13°01'S,38°31'W,,,616,
97,ESTAÇÃO METEOROLÓGICA AUTOMATICA DE BARREIRAS/BA,470.37,12°09'S,45°01'W,,,318,
98,ESTAÇÃO METEOROLÓGICA AUTOMATICA DE AREMBEPE/BA,10.78,12°45'S,38°09'W,,,350,
99,ESTAÇÃO METEOROLÓGICA AUTOMATICA DE L. E. MAGALHAES/BA,754.04,12°09'S,45°49'W,,,515,
100,ESTAÇÃO METEOROLÓGICA AUTOMATICA DE CARAVELAS/BA,2.88,17°44'S,39°16'W,,,366,
101,ESTAÇÃO METEOROLÓGICA AUTOMATICA DE CRUZ DAS ALMAS/BA,225.87,12°39'S,39°09'W,,,396,
102,ESTAÇÃO METEOROLÓGICA AUTOMATICA DE ITIRUÇÚ/BA,755.61,13°31'S,40°07'W,,,480,
103,ESTAÇÃO METEOROLÓGICA AUTOMATICA DE ITABERABA/BA,249.89,12°31'S,40°17'W,,,456,
104,ESTAÇÃO METEOROLÓGICA AUTOMATICA DE ILHEUS/BA,78.00,14°39'S,39°09'W,,,444,
105,ESTAÇÃO METEOROLÓGICA AUTOMATICA DE PAULO AFONSO/BA,252.69,09°22'S,38°13'W,,,574,
106,ESTAÇÃO METEOROLÓGICA AUTOMATICA DE MACAJUBA/BA,380.00,12°07'S,40°21'W,,,516,
107,ESTAÇÃO METEOROLÓGICA AUTOMATICA DE FEIRA DE SANTANA/BA,231.00,12°15'S,38°58'W,,,411,
108,ESTAÇÃO METEOROLÓGICA AUTOMATICA DE VITORIA DA CONQUISTA/BA,870.00,14°53'S,40°28'W,,,693,
109,ESTAÇÃO METEOROLÓGICA AUTOMATICA DE STA RITA DE CASSIA/BA,450.00,11°01'S,44°31'W,,,624,
110,ESTAÇÃO METEOROLÓGICA AUTOMATICA DE CORRENTINA/BA,540.00,13°20'S,44°37'W,,,391,
111,ESTAÇÃO METEOROLÓGICA AUTOMATICA DE BOM JESUS DA LAPA/BA,440.00,13°25'S,43°11'W,,,327,
112,ESTAÇÃO METEOROLÓGICA AUTOMATICA DE ABROLHOS/BA,25.00,17°57'S,38°41'W,,,366,
113,ESTAÇÃO METEOROLÓGICA AUTOMATICA DE REMANSO/BA,401.00,09°36'S,42°06'W,,,601,
114,ESTAÇÃO METEOROLÓGICA AUTOMATICA DE IRECÊ/BA,755.00,11°19'S,41°51'W,,,454,
115,ESTAÇÃO METEOROLÓGICA AUTOMATICA DE LENÇOIS/BA,439.00,12°33'S,41°23'W,,,512,
116,ESTAÇÃO METEOROLÓGICA AUTOMATICA DE GUANAMBI/BA,882.00,14°12'S,42°44'W,,,423,
117,ESTAÇÃO METEOROLÓGICA AUTOMATICA DE PORTO SEGURO/BA,85.00,16°23'S,39°10'W,,,591,
118,ESTAÇÃO METEOROLÓGICA AUTOMATICA DE SENHOR DO BONFIM/BA,548.00,10°26'S,40°08'W,,,650,
119,ESTAÇÃO METEOROLÓGICA AUTOMATICA DE BARRA/BA,403.00,11°05'S,43°08'W,,,313,
120,ESTAÇÃO METEOROLÓGICA AUTOMATICA DE PIATÃ/BA,1290.00,13°09'S,41°46'W,,,578,
121,ESTAÇÃO METEOROLÓGICA AUTOMATICA DE CONDE/BA,10.00,11°48'S,37°35'W,,,384,
122,ESTAÇÃO METEOROLÓGICA AUTOMATICA DE BURITIRAMA/BA,502.00,10°43'S,43°39'W,,,338,
123,ESTAÇÃO METEOROLÓGICA AUTOMATICA DE BRUMADO/BA,470.00,14°11'S,41°20'W,,,336,
124,ESTAÇÃO METEOROLÓGICA AUTOMATICA DE AMARGOSA/BA,407.00,13°00'S,39°37'W,,,290,
125,ESTAÇÃO METEOROLÓGICA AUTOMATICA DE UAUÁ/BA,453.00,09°50'S,39°29'W,,,675,
126,ESTAÇÃO METEOROLÓGICA AUTOMATICA DE QUEIMADAS/BA,315.00,10°59'S,39°37'W,,,597,
127,ESTAÇÃO METEOROLÓGICA AUTOMATICA DE UNA/BA,82.00,15°16'S,39°05'W,,,681,
128,ESTAÇÃO METEOROLÓGICA AUTOMATICA DE MARAU/BA,10.00,13°54'S,38°58'W,,,530,
129,ESTAÇÃO METEOROLÓGICA AUTOMATICA DE IBOTIRAMA/BA,430.00,12°11'S,43°12'W,,,439,
130,ESTAÇÃO METEOROLÓGICA AUTOMATICA DE JACOBINA/BA,453.00,11°12'S,40°27'W,,,488,
131,ESTAÇÃO METEOROLÓGICA AUTOMATICA DE SERRINHA/BA,339.00,11°39'S,39°01'W,,,655,
132,ESTAÇÃO METEOROLÓGICA AUTOMATICA DE EUCLIDES DA CUNHA/BA,432.00,10°32'S,38°59'W,,,407,
133,ESTAÇÃO METEOROLÓGICA AUTOMATICA DE DELFINO/BA,637.00,10°27'S,41°12'W,,,680,
134,ESTAÇÃO METEOROLÓGICA AUTOMATICA DE VALENÇA/BA,105.00,13°20'S,39°07'W,,,685,
135,ESTAÇÃO METEOROLÓGICA AUTOMATICA DE IPIAU/BA,125.00,14°10'S,39°41'W,,,447,
136,ESTAÇÃO METEOROLÓGICA AUTOMATICA DE ITAPETINGA/BA,269.00,15°14'S,40°13'W,,,474,
137,ESTAÇÃO METEOROLÓGICA AUTOMATICA DE BELMONTE/BA,88.00,16°05'S,39°12'W,,,322,
138,ESTAÇÃO METEOROLÓGICA AUTOMATICA DE CURACA/BA,370.00,09°00'S,39°91'W,,,397,
139,ESTAÇÃO METEOROLÓGICA AUTOMATICA DE PILÃO ARCADO/BA,400.00,10°00'S,42°47'W,,,579,
140,ESTAÇÃO METEOROLÓGICA AUTOMATICA DE JEREMOABO/BA,261.00,10°08'S,38°34'W,,,494,
141,ESTAÇÃO METEOROLÓGICA AUTOMATICA DE FORMOSO DO RIO PRETO/BA,488.00,11°05'S,45°20'W,,,415,
142,ESTAÇÃO METEOROLÓGICA AUTOMATICA DE MACAUBAS/BA,574.00,13°03'S,42°61'W,,,518,
143,ESTAÇÃO METEOROLÓGICA AUTOMATICA DE ITAMARAJU/BA,110.00,17°43'S,39°55'W,,,466,
144,ESTAÇÃO METEOROLÓGICA AUTOMATICA DE FORTALEZA/CE,41.00,03°46'S,38°33'W,,,756,
145,ESTAÇÃO METEOROLÓGICA AUTOMATICA DE SOBRAL/CE,109.62,03°43'S,40°20'W,,,864,
146,ESTAÇÃO METEOROLÓGICA AUTOMATICA DE GUARAMIRANGA/CE,38.20,04°15'S,38°11'W,,,766,
147,ESTAÇÃO METEOROLÓGICA AUTOMATICA DE BARBALHA/CE,409.00,07°18'S,39°16'W,,,720,
148,ESTAÇÃO METEOROLÓGICA AUTOMATICA DE IGUATÚ/CE,233.00,06°23'S,39°16'W,,,774,
149,ESTAÇÃO METEOROLÓGICA AUTOMATICA DE TAUÁ/CE,415.00,06°01'S,40°16'W,,,869,
150,ESTAÇÃO METEOROLÓGICA AUTOMATICA DE QUIXERAMOBIM/CE,79.50,05°10'S,39°17'W,,,848,
151,ESTAÇÃO METEOROLÓGICA AUTOMATICA DE MORADA NOVA/CE,43.60,05°08'S,38°21'W,,,814,
152,ESTAÇÃO METEOROLÓGICA AUTOMATICA DE JAGUARUANA/CE,12.00,04°47'S,37°46'W,,,792,
153,ESTAÇÃO METEOROLÓGICA AUTOMATICA DE CRATEUS/CE,291.00,05°11'S,40°40'W,,,747,
154,ESTAÇÃO METEOROLÓGICA AUTOMATICA DE CAMPOS SALES/CE,572.00,07°04'S,40°21'W,,,730,
155,ESTAÇÃO METEOROLÓGICA AUTOMATICA DE JAGUARIBE/CE,184.00,05°54'S,38°37'W,,,791,
156,ESTAÇÃO METEOROLÓGICA AUTOMATICA DE ITAPIPOCA/CE,102.00,03°29'S,39°35'W,,,785,
157,ESTAÇÃO METEOROLÓGICA AUTOMATICA DE ACARAÚ/CE,76.00,03°07'S,40°05'W,,,700,
158,ESTAÇÃO METEOROLÓGICA AUTOMATICA DE SÃO LUIZ/MA,56.00,02°31'S,44°12'W,,,4410,
159,ESTAÇÃO METEOROLÓGICA AUTOMATICA DE BALSAS/MA,254.00,07°27'S,46°01'W,,,1152,
160,ESTAÇÃO METEOROLÓGICA AUTOMATICA DE CAROLINA/MA,192.00,07°20'S,47°27'W,,,1178,
161,ESTAÇÃO METEOROLÓGICA AUTOMATICA DE CHAPADINHA/MA,91.00,03°44'S,43°21'W,,,1185,
162,ESTAÇÃO METEOROLÓGICA AUTOMATICA DE GRAJAÚ/MA,230.00,05°48'S,46°09'W,,,1212,
163,ESTAÇÃO METEOROLÓGICA AUTOMATICA DE SANTANA/MA,8.00,02°16'S,43°37'W,,,1296,
164,ESTAÇÃO METEOROLÓGICA AUTOMATICA DE PREGUIÇAS/MA,0.10,02°35'S,42°42'W,,,1155,
165,ESTAÇÃO METEOROLÓGICA AUTOMATICA DE TURIAÇU/MA,41.00,01°39'S,45°22'W,,,1336,
166,ESTAÇÃO METEOROLÓGICA AUTOMATICA DE BACABAL/MA,28.00,04°14'S,44°47'W,,,1148,
167,ESTAÇÃO METEOROLÓGICA AUTOMATICA DE BARRA DO CORDA/MA,153.00,05°30'S,45°14'W,,,1154,
168,ESTAÇÃO METEOROLÓGICA AUTOMATICA DE COLINAS/MA,179.00,06°02'S,44°14'W,,,1189,
169,ESTAÇÃO METEOROLÓGICA AUTOMATICA DE ALTO PARNAÍBA/MA,281.00,09°06'S,45°55'W,,,1137,
170,ESTAÇÃO METEOROLÓGICA AUTOMATICA DE ESTREITO/MA,180.00,06°39'S,47°25'W,,,1197,
171,ESTAÇÃO METEOROLÓGICA AUTOMATICA DE IMPERATRIZ/MA,126.00,05°33'S,47°27'W,,,1218,
172,ESTAÇÃO METEOROLÓGICA AUTOMATICA DE CAXIAS/MA,76.00,04°49'S,43°20'W,,,1180,
173,ESTAÇÃO METEOROLÓGICA AUTOMATICA DE BURITICUPÚ/MA,175.00,04°19'S,46°26'W,,,1169,
174,ESTAÇÃO METEOROLÓGICA AUTOMATICA DE AREIA/PB,574.62,06°58'S,35°41'W,,,2573,
175,ESTAÇÃO METEOROLÓGICA AUTOMATICA DE CAMPINA GRANDE/PB,547.56,07°13'S,35°53'W,,,2609,
176,ESTAÇÃO METEOROLÓGICA AUTOMATICA DE JOÃO PESSOA/PB,44.00,07°08'S,34°51'W,,,2654,
177,ESTAÇÃO METEOROLÓGICA AUTOMATICA DE PATOS/PB,249.00,07°04'S,37°16'W,,,2694,
178,ESTAÇÃO METEOROLÓGICA AUTOMATICA DE SÃO GONÇALO/PB,233.06,06°45'S,38°13'W,,,3662,
179,ESTAÇÃO METEOROLÓGICA AUTOMATICA DE MONTEIRO/PB,603.66,07°53'S,37°06'W,,,2682,
180,ESTAÇÃO METEOROLÓGICA AUTOMATICA DE CABACEIRAS/PB,436.00,07°29'S,36°17'W,,,2598,
181,ESTAÇÃO METEOROLÓGICA AUTOMATICA DE CAMARATUBA/PB,136.00,06°36'S,35°08'W,,,2675,
182,ESTAÇÃO METEOROLÓGICA AUTOMATICA DE RECIFE/PE,10.00,08°03'S,34°57'W,,,3314,
183,ESTAÇÃO METEOROLÓGICA AUTOMATICA DE PETROLINA/PE,370.46,09°23'S,40°29'W,,,3308,
184,ESTAÇÃO METEOROLÓGICA AUTOMATICA DE ARCO VERDE/PE,680.70,08°26'S,37°03'W,,,3195,
185,ESTAÇÃO METEOROLÓGICA AUTOMATICA DE GARANHUNS/PE,822.76,08°54'S,36°29'W,,,3248,
186,ESTAÇÃO METEOROLÓGICA AUTOMATICA DE SURUBIM/PE,418.32,07°50'S,35°45'W,,,3345,
187,ESTAÇÃO METEOROLÓGICA AUTOMATICA DE CABROBÓ/PE,341.46,08°29'S,39°18'W,,,3213,
188,ESTAÇÃO METEOROLÓGICA AUTOMATICA DE CARUARU/PE,550.00,08°17'S,35°57'W,,,3226,
189,ESTAÇÃO METEOROLÓGICA AUTOMATICA DE IBIMIRIM/PE,448.00,08°30'S,37°42'W,,,3254,
190,ESTAÇÃO METEOROLÓGICA AUTOMATICA DE SERRA TALHADA/PE,461.00,07°57'S,38°17'W,,,3340,
191,ESTAÇÃO METEOROLÓGICA AUTOMATICA DE FLORESTA/PE,329.00,08°36'S,38°35'W,,,3245,
192,ESTAÇÃO METEOROLÓGICA AUTOMATICA DE PALMARES/PE,180.00,08°39'S,35°34'W,,,3297,
193,ESTAÇÃO METEOROLÓGICA AUTOMATICA DE OURICURI/PE,464.00,07°53'S,40°06'W,,,3296,
194,ESTAÇÃO METEOROLÓGICA AUTOMATICA DE PARNAÍBA/PI,79.50,03°05'S,41°47'W,,,3517,
195,ESTAÇÃO METEOROLÓGICA AUTOMATICA DE FLORIANO/PI,123.27,06°46'S,43°01'W,,,3449,
196,ESTAÇÃO METEOROLÓGICA AUTOMATICA DE TERESINA/PI,74.36,05°04'S,42°48'W,,,3581,
197,ESTAÇÃO METEOROLÓGICA AUTOMATICA DE BOM JESUS DO PIAUI/PI,331.00,09°05'S,44°19'W,,,3397,
198,ESTAÇÃO METEOROLÓGICA AUTOMATICA DE PAULISTANA/PI,374.22,08°04'S,41°04'W,,,3521,
199,ESTAÇÃO METEOROLÓGICA AUTOMATICA DE SÃO JOÃO DO PIAUÍ/PI,235.00,08°21'S,42°15'W,,,3560,
200,ESTAÇÃO METEOROLÓGICA AUTOMATICA DE PIRIPIRI/PI,161.20,04°15'S,41°46'W,,,3529,
201,ESTAÇÃO METEOROLÓGICA AUTOMATICA DE ALVORADA DO GURGUÉIA/PI,270.00,08°26'S,43°51'W,,,3374,
202,ESTAÇÃO METEOROLÓGICA AUTOMATICA DE CARACOL/PI,523.00,09°17'S,43°19'W,,,3418,
203,ESTAÇÃO METEOROLÓGICA AUTOMATICA DE ESPERANTINA/PI,65.00,03°54'S,42°14'W,,,3445,
204,ESTAÇÃO METEOROLÓGICA AUTOMATICA DE PICOS/PI,233.00,07°04'S,41°24'W,,,3525,
205,ESTAÇÃO METEOROLÓGICA AUTOMATICA DE S. RAIMUNDO NONATO/PI,402.00,09°01'S,42°42'W,,,3571,
206,ESTAÇÃO METEOROLÓGICA AUTOMATICA DE URUÇUI/PI,393.00,07°28'S,44°20'W,,,3583,
207,ESTAÇÃO METEOROLÓGICA AUTOMATICA DE OEIRAS/PI,156.00,06°58'S,42°08'W,,,3508,
208,ESTAÇÃO METEOROLÓGICA AUTOMATICA DE CASTELO DO PIAUÍ/PI,286.00,05°20'S,41°30'W,,,3421,
209,ESTAÇÃO METEOROLÓGICA AUTOMATICA DE SÃO PEDRO DO PIAUÍ/PI,287.00,05°54'S,42°43'W,,,3570,
210,ESTAÇÃO METEOROLÓGICA AUTOMATICA DE VALENÇA DO PIAUÍ/PI,301.00,06°23'S,41°44'W,,,3584,
211,ESTAÇÃO METEOROLÓGICA AUTOMATICA DE GILBUÉS/PI,425.00,09°52'S,45°20'W,,,3456,
212,ESTAÇÃO METEOROLÓGICA AUTOMATICA DE CANTO DO BURITI/PI,308.00,08°07'S,42°58'W,,,3415,
213,ESTAÇÃO METEOROLÓGICA AUTOMATICA DE NATAL/RN,48.60,05°54'S,35°12'W,,,3769,
214,ESTAÇÃO METEOROLÓGICA AUTOMATICA DE CAICÓ/RN,169.85,06°27'S,37°05'W,,,3704,
215,ESTAÇÃO METEOROLÓGICA AUTOMATICA DE MACAU/RN,3.43,05°07'S,36°46'W,,,3759,
216,ESTAÇÃO METEOROLÓGICA AUTOMATICA DE MOSSORÓ/RN,36.00,05°12'S,37°18'W,,,3768,
217,ESTAÇÃO METEOROLÓGICA AUTOMATICA DE APODI/RN,150.00,05°40'S,37°47'W,,,3691,
218,ESTAÇÃO METEOROLÓGICA AUTOMATICA DE CALCANHAR/RN,17.00,05°09'S,35°27'W,,,3840,
219,ESTAÇÃO METEOROLÓGICA AUTOMATICA DE SANTA CRUZ/RN,237.00,06°13'S,36°01'W,,,3802,
220,ESTAÇÃO METEOROLÓGICA AUTOMATICA DE ARACAJÚ/SE,4.72,10°57'S,37°03'W,,,5352,
221,ESTAÇÃO METEOROLÓGICA AUTOMATICA DE ITABAIANINHA/SE,208.00,11°16'S,37°47'W,,,5377,
222,ESTAÇÃO METEOROLÓGICA AUTOMATICA DE POÇO VERDE/SE,362.00,10°44'S,38°06'W,,,5403,
223,ESTAÇÃO METEOROLÓGICA AUTOMATICA DE CARIRA/SE,308.00,10°23'S,37°44'W,,,5362,
224,ESTAÇÃO METEOROLÓGICA AUTOMATICA DE BREJO GRANDE/SE,10.00,10°25'S,36°28'W,,,5357,
225,ESTAÇÃO METEOROLÓGICA AUTOMATICA DE PRQ. EST. CHANDLESS/AC,206.00,09°21'S,69°56'W,,,89,
226,ESTAÇÃO METEOROLÓGICA AUTOMATICA DE RIO BRANCO/AC,220.00,09°57'S,68°09'W,,,94,
227,ESTAÇÃO METEOROLÓGICA AUTOMATICA DE CRUZEIRO DO SUL/AC,220.00,07°36'S,72°40'W,,,84,
228,ESTAÇÃO METEOROLÓGICA AUTOMATICA DE PORTO WALTER/AC,204.00,08°16'S,72°44'W,,,93,
229,ESTAÇÃO METEOROLÓGICA AUTOMATICA DE MARECHAL THAUMATURGO/AC,230.00,08°57'S,72°47'W,,,90,
230,ESTAÇÃO METEOROLÓGICA AUTOMATICA DE FEIJO/AC,163.00,08°08'S,70°20'W,,,86,
231,ESTAÇÃO METEOROLÓGICA AUTOMATICA DE EPITACIOLANDIA/AC,217.00,11°01'S,68°44'W,,,85,
232,ESTAÇÃO METEOROLÓGICA AUTOMATICA DE MANAUS/AM,67.00,03°07'S,59°57'W,,,256,
233,ESTAÇÃO METEOROLÓGICA AUTOMATICA DE EIRUNEPÉ/AM,143.00,06°39'S,69°52'W,,,240,
234,ESTAÇÃO METEOROLÓGICA AUTOMATICA DE BOCA DO ACRE/AM,111.00,08°46'S,67°19'W,,,231,
235,ESTAÇÃO METEOROLÓGICA AUTOMATICA DE LABREA/AM,64.00,07°15'S,64°47'W,,,253,
236,ESTAÇÃO METEOROLÓGICA AUTOMATICA DE HUMAITA/AM,72.00,07°38'S,63°04'W,,,244,
237,ESTAÇÃO METEOROLÓGICA AUTOMATICA DE APUI/AM,168.00,07°12'S,59°53'W,,,223,
238,ESTAÇÃO METEOROLÓGICA AUTOMATICA DE COARI/AM,43.00,04°05'S,63°08'W,,,238,
239,ESTAÇÃO METEOROLÓGICA AUTOMATICA DE MANACAPURU/AM,19.00,03°17'S,60°37'W,,,254,
240,ESTAÇÃO METEOROLÓGICA AUTOMATICA DE AUTAZES/AM,28.00,03°34'S,59°07'W,,,225,
241,ESTAÇÃO METEOROLÓGICA AUTOMATICA DE ITACOATIARA/AM,37.00,03°07'S,58°28'W,,,247,
242,ESTAÇÃO METEOROLÓGICA AUTOMATICA DE MAUÉS/AM,35.00,03°23'S,57°40'W,,,259,
243,ESTAÇÃO METEOROLÓGICA AUTOMATICA DE PARINTINS/AM,35.00,02°38'S,56°45'W,,,264,
244,ESTAÇÃO METEOROLÓGICA AUTOMATICA DE URUCARA/AM,17.00,02°32'S,57°45'W,,,279,
245,ESTAÇÃO METEOROLÓGICA AUTOMATICA DE RIO URUBU/AM,59.00,02°25'S,59°33'W,,,267,
246,ESTAÇÃO METEOROLÓGICA AUTOMATICA DE PRES. FIGUEIREDO/AM,92.00,02°03'S,60°01'W,,,266,
247,ESTAÇÃO METEOROLÓGICA AUTOMATICA DE BARCELOS/AM,17.00,00°59'S,62°55'W,,,226,
248,ESTAÇÃO METEOROLÓGICA AUTOMATICA DE MANICORÉ/AM,71.00,05°48'S,61°07'W,,,257,
249,ESTAÇÃO METEOROLÓGICA AUTOMATICA DE S. G. DA CACHOEIRA/AM,90.00,00°07'S,67°03'W,,,270,
250,ESTAÇÃO METEOROLÓGICA AUTOMATICA DE OIAPOQUE/AP,19.00,03°48'N,51°51'W,,,211,
251,ESTAÇÃO METEOROLÓGICA AUTOMATICA DE TARTARUGALZINHO/AP,21.00,01°29'N,50°55'W,,,217,
252,ESTAÇÃO METEOROLÓGICA AUTOMATICA DE PORTO GRANDE/AP,77.00,00°42'N,51°25'W,,,213,
253,ESTAÇÃO METEOROLÓGICA AUTOMATICA DE MACAPA/AP,27.00,03°52'S,51°08'W,,,209,
254,ESTAÇÃO METEOROLÓGICA AUTOMATICA DE BELÉM/PA,24.00,01°24'S,48°26'W,,,2435,
255,ESTAÇÃO METEOROLÓGICA AUTOMATICA DE CASTANHAL/PA,65.00,01°18'S,47°55'W,,,2452,
256,ESTAÇÃO METEOROLÓGICA AUTOMATICA DE MEDICILANDIA/PA,251.00,03°30'S,52°57'W,,,2486,
257,ESTAÇÃO METEOROLÓGICA AUTOMATICA DE PACAJÁ/PA,108.00,03°50'S,50°38'W,,,2502,
258,ESTAÇÃO METEOROLÓGICA AUTOMATICA DE PLACAS/PA,96.00,03°52'S,54°14'W,,,2509,
259,ESTAÇÃO METEOROLÓGICA AUTOMATICA DE PARAGOMINAS/PA,101.00,03°00'S,47°20'W,,,2504,
260,ESTAÇÃO METEOROLÓGICA AUTOMATICA DE TOMÉ AÇU/PA,38.00,02°24'S,48°09'W,,,2549,
261,ESTAÇÃO METEOROLÓGICA AUTOMATICA DE RONDON DO PARÁ/PA,221.00,04°47'S,48°04'W,,,2518,
262,ESTAÇÃO METEOROLÓGICA AUTOMATICA DE SALINÓPOLIS/PA,21.00,00°37'S,47°21'W,,,2520,
263,ESTAÇÃO METEOROLÓGICA AUTOMATICA DE BRAGANÇA/PA,33.00,01°04'S,46°46'W,,,2440,
264,ESTAÇÃO METEOROLÓGICA AUTOMATICA DE SOURE/PA,11.00,00°48'S,48°30'W,,,2545,
265,ESTAÇÃO METEOROLÓGICA AUTOMATICA DE TUCURUÍ/PA,148.00,03°49'S,49°40'W,,,2553,
266,ESTAÇÃO METEOROLÓGICA AUTOMATICA DE SERRA DOS CARAJÁS/PA,719.00,06°04'S,50°08'W,,,2505,
267,ESTAÇÃO METEOROLÓGICA AUTOMATICA DE ITAITUBA/PA,131.00,04°16'S,55°59'W,,,2474,
268,ESTAÇÃO METEOROLÓGICA AUTOMATICA DE ÓBIDOS/PA,96.00,05°21'S,49°07'W,,,2497,
269,ESTAÇÃO METEOROLÓGICA AUTOMATICA DE SANTANA DO ARAGUAIA/PA,168.00,09°20'S,50°21'W,,,2528,
270,ESTAÇÃO METEOROLÓGICA AUTOMATICA DE TUCUMA/PA,302.00,06°44'S,51°08'W,,,2552,
271,ESTAÇÃO METEOROLÓGICA AUTOMATICA DE NOVO REPARTIMENTO/PA,113.00,04°15'S,49°55'W,,,2496,
272,ESTAÇÃO METEOROLÓGICA AUTOMATICA DE CAMETÁ/PA,22.00,02°14'S,49°29'W,,,2448,
273,ESTAÇÃO METEOROLÓGICA AUTOMATICA DE MONTE ALEGRE/PA,96.00,02°00'S,54°04'W,,,2490,
274,ESTAÇÃO METEOROLÓGICA AUTOMATICA DE MARABA/PA,116.00,05°10'S,49°22'W,,,2482,
275,ESTAÇÃO METEOROLÓGICA AUTOMATICA DE C. DO ARAGUAIA/PA,180.00,08°15'S,49°16'W,,,2455,
276,ESTAÇÃO METEOROLÓGICA AUTOMATICA DE MINA DO PALITO/PA,261.00,06°19'S,55°47'W,,,2474,
277,ESTAÇÃO METEOROLÓGICA AUTOMATICA DE XINGUARA/PA,245.00,07°06'S,49°92'W,,,2559,
278,ESTAÇÃO METEOROLÓGICA AUTOMATICA DE CAPITAO POÇO/PA,81.00,01°44'S,47°03'W,,,2451,
279,ESTAÇÃO METEOROLÓGICA AUTOMATICA DE SANTARÉM/PA,137.00,02°50'S,54°72'W,,,2529,
280,ESTAÇÃO METEOROLÓGICA AUTOMATICA DE PORTO VELHO/RO,95.00,08°45'S,63°28'W,,,4381,
281,ESTAÇÃO METEOROLÓGICA AUTOMATICA DE VILHENA/RO,590.00,12°44'S,60°09'W,,,4396,
282,ESTAÇÃO METEOROLÓGICA AUTOMATICA DE CACOAL/RO,210.00,11°26'S,61°26'W,,,4353,
283,ESTAÇÃO METEOROLÓGICA AUTOMATICA DE ARIQUEMES/RO,140.00,09°56'S,62°57'W,,,4349,
284,ESTAÇÃO METEOROLÓGICA AUTOMATICA DE BOA VISTA/RR,94.00,2°49'N,60°41'W,,,4399,
285,ESTAÇÃO METEOROLÓGICA AUTOMATICA DE PALMAS/TO,280.00,10°11'S,48°18'W,,,5513,
286,ESTAÇÃO METEOROLÓGICA AUTOMATICA DE PARANÃ/TO,280.00,12°36'S,47°52'W,,,5518,
287,ESTAÇÃO METEOROLÓGICA AUTOMATICA DE PEIXE/TO,242.00,12°01'S,48°33'W,,,5521,
288,ESTAÇÃO METEOROLÓGICA AUTOMATICA DE GURUPI/TO,287.00,11°44'S,49°02'W,,,5483,
289,ESTAÇÃO METEOROLÓGICA AUTOMATICA DE PEDRO AFONSO/TO,189.00,08°58'S,48°11'W,,,5520,
290,ESTAÇÃO METEOROLÓGICA AUTOMATICA DE ARAGUAÍNA/TO,226.00,07°06'S,48°12'W,,,5436,
291,ESTAÇÃO METEOROLÓGICA AUTOMATICA DE DIANOPOLIS/TO,732.00,11°35'S,46°50'W,,,5470,
292,ESTAÇÃO METEOROLÓGICA AUTOMATICA DE FORMOSO DO ARAGUAIA/TO,220.00,11°53'S,49°36'W,,,5478,
293,ESTAÇÃO METEOROLÓGICA AUTOMATICA DE MATEIROS/TO,798.00,10°25'S,45°55'W,,,5498,
294,ESTAÇÃO METEOROLÓGICA AUTOMATICA DE MARIANOPOLID DO TO/TO,203.00,09°34'S,49°43'W,,,5497,
295,ESTAÇÃO METEOROLÓGICA AUTOMATICA DE CAMPOS LINDOS/TO,425.00,08°09'S,46°38'W,,,5454,
296,ESTAÇÃO METEOROLÓGICA AUTOMATICA DE ARAGUATINS/TO,117.00,05°38'S,48°06'W,,,5438,
297,ESTAÇÃO METEOROLÓGICA AUTOMATICA DE SANTA FE DO ARAGUAIA/TO,171.00,07°12'S,48°78'W,,,5540,
298,ESTAÇÃO METEOROLÓGICA AUTOMATICA DE RIO SONO/TO,291.00,09°16'S,47°13'W,,,5537,
299,ESTAÇÃO METEOROLÓGICA AUTOMATICA DE PIUM/TO,161.00,10°47'S,49°62'W,,,5525,
300,ESTAÇÃO METEOROLÓGICA AUTOMATICA DE SANTA ROSA DO TOCANTINS/TO,306.00,11°04'S,48°18'W,,,5543,
301,ESTAÇÃO METEOROLÓGICA AUTOMATICA DE ALMAS/TO,512.00,11°28'S,47°21'W,,,5428,
302,ESTAÇÃO METEOROLÓGICA AUTOMATICA DE ARAGUACU/TO,231.00,12°59'S,49°52'W,,,5435,
303,ESTAÇÃO METEOROLÓGICA AUTOMATICA DE VITÓRIA/ES,9.00,20°16'S,40°18'W,,,78,
304,ESTAÇÃO METEOROLÓGICA AUTOMATICA DE SANTA TERESA/ES,988.00,19°59'S,40°34'W,,,64,
305,ESTAÇÃO METEOROLÓGICA AUTOMATICA DE LINHARES/ES,40.00,19°21'S,40°04'W,,,43,
306,ESTAÇÃO METEOROLÓGICA AUTOMATICA DE ALFREDO CHAVES/ES,35.00,20°38'S,40°44'W,,,5,
307,ESTAÇÃO METEOROLÓGICA AUTOMATICA DE SÃO MATEUS/ES,39.00,18°42'S,39°50'W,,,68,
308,ESTAÇÃO METEOROLÓGICA AUTOMATICA DE ALEGRE/ES,138.00,20°45'S,41°29'W,,,4,
309,ESTAÇÃO METEOROLÓGICA AUTOMATICA DE PRES. KENNEDY/ES,80.00,21°06'S,41°02'W,,,59,
310,ESTAÇÃO METEOROLÓGICA AUTOMATICA DE NOVA VENECIA/ES,154.00,18°41'S,40°23'W,,,53,
311,ESTAÇÃO METEOROLÓGICA AUTOMATICA DE AFONSO CLAUDIO/ES,520.00,20°06'S,41°06'W,,,1,
312,ESTAÇÃO METEOROLÓGICA AUTOMATICA DE BARBACENA/MG,1155.00,21°13'S,43°46'W,,,1624,
313,ESTAÇÃO METEOROLÓGICA AUTOMATICA DE ARAXÁ/MG,1020.00,19°36'S,46°56'W,,,1607,
314,ESTAÇÃO METEOROLÓGICA AUTOMATICA DE MONTES CLAROS/MG,646.29,16°43'S,43°52'W,,,2064,
315,ESTAÇÃO METEOROLÓGICA AUTOMATICA DE UBERLÂNDIA/MG,869.00,18°55'S,48°15'W,,,2388,
316,ESTAÇÃO METEOROLÓGICA AUTOMATICA DE ALMENARA/MG,208.00,16°16'S,40°40'W,,,1581,
317,ESTAÇÃO METEOROLÓGICA AUTOMATICA DE MONTE VERDE/MG,1500.00,22°51'S,46°02'W,,,1678,
318,ESTAÇÃO METEOROLÓGICA AUTOMATICA DE VIÇOSA/MG,712.20,20°46'S,42°52'W,,,2408,
319,ESTAÇÃO METEOROLÓGICA AUTOMATICA DE TIMÓTEO/MG,333.00,19°34'S,42°38'W,,,2370,
320,ESTAÇÃO METEOROLÓGICA AUTOMATICA DE ITUIUTABA/MG,560.00,18°57'S,49°30'W,,,1950,
321,ESTAÇÃO METEOROLÓGICA AUTOMATICA DE OURO BRANCO/MG,1061.00,20°31'S,43°41'W,,,2101,
322,ESTAÇÃO METEOROLÓGICA AUTOMATICA DE S.J.DEL REI/MG,991.00,21°06'S,44°15'W,,,2294,
323,ESTAÇÃO METEOROLÓGICA AUTOMATICA DE VARGINHA/MG,955.00,21°34'S,45°24'W,,,2398,
324,ESTAÇÃO METEOROLÓGICA AUTOMATICA DE PASSOS/MG,784.00,20°44'S,46°38'W,,,2123,
325,ESTAÇÃO METEOROLÓGICA AUTOMATICA DE MURIAÉ/MG,297.00,21°06'S,42°23'W,,,2070,
326,ESTAÇÃO METEOROLÓGICA AUTOMATICA DE JUÍZ DE FORA/MG,950.00,21°46'S,43°21'W,,,1982,
327,ESTAÇÃO METEOROLÓGICA AUTOMATICA DE CAMPINA VERDE/MG,555.20,19°32'S,49°32'W,,,1684,
328,ESTAÇÃO METEOROLÓGICA AUTOMATICA DE CONC. DAS ALAGOAS/MG,568.00,19°59'S,48°09'W,,,1753,
329,ESTAÇÃO METEOROLÓGICA AUTOMATICA DE BELO HOR. (PAMPULHA)/MG,869.00,19°53'S,43°58'W,,,1629,
330,ESTAÇÃO METEOROLÓGICA AUTOMATICA DE SERRA DOS AIMORES/MG,208.00,17°48'S,40°15'W,,,2348,
331,ESTAÇÃO METEOROLÓGICA AUTOMATICA DE PATROCÍNIO/MG,976.00,19°00'S,46°58'W,,,2126,
332,ESTAÇÃO METEOROLÓGICA AUTOMATICA DE FORMIGA/MG,873.00,20°27'S,45°27'W,,,1854,
333,ESTAÇÃO METEOROLÓGICA AUTOMATICA DE SACRAMENTO/MG,912.00,19°53'S,47°26'W,,,2224,
334,ESTAÇÃO METEOROLÓGICA AUTOMATICA DE MONTALVANIA/MG,512.00,14°24'S,44°21'W,,,2056,
335,ESTAÇÃO METEOROLÓGICA AUTOMATICA DE TEÓFILO OTONI/MG,475.00,17°54'S,41°31'W,,,2369,
336,ESTAÇÃO METEOROLÓGICA AUTOMATICA DE TRÊS MARIAS/MG,921.00,18°12'S,45°28'W,,,2378,
337,ESTAÇÃO METEOROLÓGICA AUTOMATICA DE PASSA QUATRO/MG,1040.00,22°23'S,44°57'W,,,2119,
338,ESTAÇÃO METEOROLÓGICA AUTOMATICA DE CALDAS/MG,1150.00,21°55'S,46°22'W,,,1676,
339,ESTAÇÃO METEOROLÓGICA AUTOMATICA DE MARIA DA FÉ/MG,1276.00,22°18'S,45°22'W,,,2022,
340,ESTAÇÃO METEOROLÓGICA AUTOMATICA DE GOVERNADOR VALADARES/MG,263.00,18°47'S,41°59'W,,,1878,
341,ESTAÇÃO METEOROLÓGICA AUTOMATICA DE GUANHÃES/MG,860.00,18°47'S,42°56'W,,,1881,
342,ESTAÇÃO METEOROLÓGICA AUTOMATICA DE AIMORES/MG,83.74,19°28'S,41°03'W,,,1574,
343,ESTAÇÃO METEOROLÓGICA AUTOMATICA DE FLORESTAL/MG,742.00,19°53'S,44°25'W,,,1853,
344,ESTAÇÃO METEOROLÓGICA AUTOMATICA DE DORES DO INDAIÁ/MG,722.00,19°28'S,45°35'W,,,1823,
345,ESTAÇÃO METEOROLÓGICA AUTOMATICA DE DIAMANTINA/MG,1356.00,18°13'S,43°38'W,,,1804,
346,ESTAÇÃO METEOROLÓGICA AUTOMATICA DE CURVELO/MG,670.00,18°44'S,44°27'W,,,1796,
347,ESTAÇÃO METEOROLÓGICA AUTOMATICA DE MOCAMBINHO/MG,460.00,15°05'S,44°00'W,,,2175,
348,ESTAÇÃO METEOROLÓGICA AUTOMATICA DE MANTENA/MG,213.50,18°48'S,40°56'W,,,2019,
349,ESTAÇÃO METEOROLÓGICA AUTOMATICA DE CAPELINHA/MG,932.00,17°42'S,42°23'W,,,1698,
350,ESTAÇÃO METEOROLÓGICA AUTOMATICA DE UNAI/MG,631.00,16°33'S,46°52'W,,,2390,
351,ESTAÇÃO METEOROLÓGICA AUTOMATICA DE ESPINOSA/MG,570.00,14°54'S,42°50'W,,,1836,
352,ESTAÇÃO METEOROLÓGICA AUTOMATICA DE BURITIS/MG,894.00,15°31'S,46°26'W,,,1664,
353,ESTAÇÃO METEOROLÓGICA AUTOMATICA DE PIRAPORA/MG,503.00,17°20'S,44°56'W,,,2163,
354,ESTAÇÃO METEOROLÓGICA AUTOMATICA DE GUARDA-MOR/MG,616.00,17°48'S,47°01'W,,,1888,
355,ESTAÇÃO METEOROLÓGICA AUTOMATICA DE SÃO ROMÃO/MG,460.00,16°22'S,45°04'W,,,2317,
356,ESTAÇÃO METEOROLÓGICA AUTOMATICA DE CHAPADA GAÚCHA/MG,880.00,15°18'S,45°37'W,,,1741,
357,ESTAÇÃO METEOROLÓGICA AUTOMATICA DE ÁGUAS VERMELHAS/MG,740.00,15°41'S,41°26'W,,,1573,
358,ESTAÇÃO METEOROLÓGICA AUTOMATICA DE ITAOBIM/MG,266.00,16°33'S,41°30'W,,,1940,
359,ESTAÇÃO METEOROLÓGICA AUTOMATICA DE RIO PARDO DE MINAS/MG,950.00,15°36'S,43°36'W,,,2210,
360,ESTAÇÃO METEOROLÓGICA AUTOMATICA DE SALINAS/MG,495.00,16°10'S,42°17'W,,,2225,
361,ESTAÇÃO METEOROLÓGICA AUTOMATICA DE JOÃO PINHEIRO/MG,870.00,17°19'S,45°49'W,,,1975,
362,ESTAÇÃO METEOROLÓGICA AUTOMATICA DE CARATINGA/MG,615.00,19°44'S,42°08'W,,,1710,
363,ESTAÇÃO METEOROLÓGICA AUTOMATICA DE IBIRITÈ (ROLA MOÇA)/MG,1208.00,20°01'S,44°04'W,,,1901,
364,ESTAÇÃO METEOROLÓGICA AUTOMATICA DE MANHUAÇU/MG,836.00,20°15'S,40°10'W,,,2017,
365,ESTAÇÃO METEOROLÓGICA AUTOMATICA DE CORONEL PACHECO/MG,431.00,21°54'S,43°26'W,,,1779,
366,ESTAÇÃO METEOROLÓGICA AUTOMATICA DE JANUARIA/MG,480.00,15°44'S,44°36'W,,,1962,
367,ESTAÇÃO METEOROLÓGICA AUTOMATICA DE POMPEU/MG,705.00,19°24'S,45°00'W,,,2171,
368,ESTAÇÃO METEOROLÓGICA AUTOMATICA DE SÃO SEBASTIAO DO PARAÍSO/MG,845.00,20°91'S,47°11'W,,,2324,
369,ESTAÇÃO METEOROLÓGICA AUTOMATICA DE SETE LAGOAS/MG,719.00,19°45'S,44°17'W,,,2353,
370,ESTAÇÃO METEOROLÓGICA AUTOMATICA DE BELO HORIZONTE - CERCADINHO/MG,1214.00,19°97'S,43°95'W,,,1629,
371,ESTAÇÃO METEOROLÓGICA AUTOMATICA DE ECOLOGIA AGRÍCOLA/RJ,34.00,22°48'S,43°41'W,,,3671,
372,ESTAÇÃO METEOROLÓGICA AUTOMATICA DE MARAMBAIA/RJ,9.70,23°03'S,43°36'W,,,3657,
373,ESTAÇÃO METEOROLÓGICA AUTOMATICA DE XEREM/RJ,33.00,22°35'S,43°16'W,,,3614,
374,ESTAÇÃO METEOROLÓGICA AUTOMATICA DE CAMBUCÍ/RJ,35.00,21°34'S,41°57'W,,,3603,
375,ESTAÇÃO METEOROLÓGICA AUTOMATICA DE ARRAIAL DO CABO/RJ,4.00,22°58'S,42°00'W,,,3595,
376,ESTAÇÃO METEOROLÓGICA AUTOMATICA DE CAMPOS/RJ,25.00,21°42'S,41°21'W,,,3604,
377,ESTAÇÃO METEOROLÓGICA AUTOMATICA DE MACAÉ/RJ,32.00,22°23'S,41°49'W,,,3626,
378,ESTAÇÃO METEOROLÓGICA AUTOMATICA DE RESENDE/RJ,439.89,22°27'S,44°27'W,,,3652,
379,ESTAÇÃO METEOROLÓGICA AUTOMATICA DE PICO DO COUTO/RJ,1777.00,22°27'S,43°17'W,,,3644,
380,ESTAÇÃO METEOROLÓGICA AUTOMATICA DE VALENÇA/RJ,367.00,22°21'S,43°42'W,,,3678,
381,ESTAÇÃO METEOROLÓGICA AUTOMATICA DE TERESÓPOLIS/RJ,980.00,22°26'S,42°59'W,,,3675,
382,ESTAÇÃO METEOROLÓGICA AUTOMATICA DE PARATÍ/RJ,4.00,23°13'S,44°43'W,,,3642,
383,ESTAÇÃO METEOROLÓGICA AUTOMATICA DE SÃO TOMÉ/RJ,8.00,22°02'S,41°03'W,,,3604,
384,ESTAÇÃO METEOROLÓGICA AUTOMATICA DE VILA MILITAR/RJ,45.00,22°51'S,43°24'W,,,3657,
385,ESTAÇÃO METEOROLÓGICA AUTOMATICA DE NOVA FRIBURGO/RJ,1046.00,22°19'S,42°40'W,,,3638,
386,ESTAÇÃO METEOROLÓGICA AUTOMATICA DE TRÊS RIOS /RJ,305.00,22°09'S,43°20'W,,,3677,
387,ESTAÇÃO METEOROLÓGICA AUTOMATICA DE RIO CLARO/RJ,516.00,22°65'S,44°04'W,,,3654,
388,ESTAÇÃO METEOROLÓGICA AUTOMATICA DE FORTE DE COPACABANA/RJ,45.00,22°59'S,43°11'W,,,3657,
389,ESTAÇÃO METEOROLÓGICA AUTOMATICA DE JACAREPAGUA/RJ,19.00,22°59'S,43°22'W,,,3657,
390,ESTAÇÃO METEOROLÓGICA AUTOMATICA DE SILVA JARDIM/RJ,19.00,22°64'S,42°41'W,,,3672,
391,ESTAÇÃO METEOROLÓGICA AUTOMATICA DE SAQUAREMA/RJ,16.00,22°87'S,42°60'W,,,3670,
392,ESTAÇÃO METEOROLÓGICA AUTOMATICA DE SAO PAULO/SP,792.06,23°30'S,46°37'W,,,5269,
393,ESTAÇÃO METEOROLÓGICA AUTOMATICA DE BAURU/SP,550.00,22°18'S,49°42'W,,,4772,
394,ESTAÇÃO METEOROLÓGICA AUTOMATICA DE CAMPOS DO JORDÃO/SP,1642.00,22°45'S,45°36'W,,,4815,
395,ESTAÇÃO METEOROLÓGICA AUTOMATICA DE PRESIDENTE PRUDENTE/SP,435.55,22°07'S,51°24'W,,,5171,
396,ESTAÇÃO METEOROLÓGICA AUTOMATICA DE FRANCA/SP,1026.00,20°34'S,47°22'W,,,4892,
397,ESTAÇÃO METEOROLÓGICA AUTOMATICA DE SÃO CARLOS/SP,863.00,21°57'S,47°52'W,,,5253,
398,ESTAÇÃO METEOROLÓGICA AUTOMATICA DE IGUAPE/SP,3.00,24°42'S,47°33'W,,,4938,
399,ESTAÇÃO METEOROLÓGICA AUTOMATICA DE SOROCABA/SP,609.00,23°21'S,47°40'W,,,5288,
400,ESTAÇÃO METEOROLÓGICA AUTOMATICA DE ITAPEVA/SP,707.00,23°58'S,48°51'W,,,4963,
401,ESTAÇÃO METEOROLÓGICA AUTOMATICA DE S. MIG. ARCANJO/SP,678.00,23°51'S,48°09'W,,,5268,
402,ESTAÇÃO METEOROLÓGICA AUTOMATICA DE OURINHOS/SP,448.00,22°57'S,49°51'W,,,5097,
403,ESTAÇÃO METEOROLÓGICA AUTOMATICA DE RANCHARIA/SP,350.00,22°22'S,50°58'W,,,5180,
404,ESTAÇÃO METEOROLÓGICA AUTOMATICA DE AVARÉ/SP,654.00,23°04'S,48°53'W,,,4756,
405,ESTAÇÃO METEOROLÓGICA AUTOMATICA DE PIRACICABA/SP,573.00,22°42'S,47°37'W,,,5140,
406,ESTAÇÃO METEOROLÓGICA AUTOMATICA DE LINS/SP,459.00,21°39'S,49°44'W,,,5012,
407,ESTAÇÃO METEOROLÓGICA AUTOMATICA DE TAUBATÉ/SP,571.00,23°02'S,45°31'W,,,5311,
408,ESTAÇÃO METEOROLÓGICA AUTOMATICA DE VOTUPORANGA/SP,486.00,20°24'S,49°57'W,,,5348,
409,ESTAÇÃO METEOROLÓGICA AUTOMATICA DE JALES/SP,457.00,20°09'S,50°35'W,,,4988,
410,ESTAÇÃO METEOROLÓGICA AUTOMATICA DE VALPARAISO/SP,374.00,21°19'S,50°55'W,,,5337,
411,ESTAÇÃO METEOROLÓGICA AUTOMATICA DE JOSÉ BONIFÁCIO/SP,405.00,21°02'S,49°41'W,,,4997,
412,ESTAÇÃO METEOROLÓGICA AUTOMATICA DE ARIRANHA/SP,525.00,21°07'S,48°50'W,,,4747,
413,ESTAÇÃO METEOROLÓGICA AUTOMATICA DE IBITINGA/SP,492.00,21°51'S,48°48'W,,,4931,
414,ESTAÇÃO METEOROLÓGICA AUTOMATICA DE CASA BRANCA/SP,730.00,21°46'S,47°04'W,,,4828,
415,ESTAÇÃO METEOROLÓGICA AUTOMATICA DE ITAPIRA/SP,633.00,22°24'S,46°48'W,,,4965,
416,ESTAÇÃO METEOROLÓGICA AUTOMATICA DE S LUIS DO PARAITINGA/SP,874.00,23°13'S,45°25'W,,,5266,
417,ESTAÇÃO METEOROLÓGICA AUTOMATICA DE BARRA BONITA/SP,544.00,22°20'S,48°33'W,,,4764,
418,ESTAÇÃO METEOROLÓGICA AUTOMATICA DE MOELA/SP,45.00,24°02'S,46°15'W,,,4918,
419,ESTAÇÃO METEOROLÓGICA AUTOMATICA DE BARRA DO TURVO/SP,667.00,24°57'S,48°24'W,,,4766,
420,ESTAÇÃO METEOROLÓGICA AUTOMATICA DE PRADÓPOLIS/SP,544.00,21°20'S,48°06'W,,,5165,
421,ESTAÇÃO METEOROLÓGICA AUTOMATICA DE BARRETOS/SP,533.00,20°33'S,48°32'W,,,4767,
422,ESTAÇÃO METEOROLÓGICA AUTOMATICA DE ITUVERAVA/SP,600.00,20°21'S,47°46'W,,,4981,
423,ESTAÇÃO METEOROLÓGICA AUTOMATICA DE BARUERI/SP,791.00,23°31'S,46°52'W,,,4769,
424,ESTAÇÃO METEOROLÓGICA AUTOMATICA DE CURITIBA/PR,923.50,25°26'S,49°13'W,,,2877,
425,ESTAÇÃO METEOROLÓGICA AUTOMATICA DE IVAÍ/PR,808.00,25°00'S,50°51'W,,,2946,
426,ESTAÇÃO METEOROLÓGICA AUTOMATICA DE CASTRO/PR,1007.76,24°47'S,49°59'W,,,2853,
427,ESTAÇÃO METEOROLÓGICA AUTOMATICA DE Mal. CANDIDO RONDON/PR,392.00,24°32'S,54°01'W,,,2987,
428,ESTAÇÃO METEOROLÓGICA AUTOMATICA DE JOAQUIM TÁVORA/PR,522.00,23°30'S,49°56'W,,,2962,
429,ESTAÇÃO METEOROLÓGICA AUTOMATICA DE NOVA TEBAS/PR,654.00,24°26'S,51°57'W,,,3025,
430,ESTAÇÃO METEOROLÓGICA AUTOMATICA DE INÁCIO MARTINS/PR,1260.00,25°33'S,51°05'W,,,2931,
431,ESTAÇÃO METEOROLÓGICA AUTOMATICA DE ICARAÍMA/PR,385.00,23°23'S,53°38'W,,,2926,
432,ESTAÇÃO METEOROLÓGICA AUTOMATICA DE GOIOÊRE/PR,468.00,24°11'S,53°01'W,,,2909,
433,ESTAÇÃO METEOROLÓGICA AUTOMATICA DE MARINGA/PR,542.00,23°24'S,51°55'W,,,2993,
434,ESTAÇÃO METEOROLÓGICA AUTOMATICA DE NOVA FÁTIMA/PR,668.00,23°24'S,50°34'W,,,3018,
435,ESTAÇÃO METEOROLÓGICA AUTOMATICA DE DOIS VIZINHOS/PR,520.00,25°41'S,53°05'W,,,2882,
436,ESTAÇÃO METEOROLÓGICA AUTOMATICA DE FOZ DO IGUAÇU/PR,321.00,25°36'S,54°29'W,,,2903,
437,ESTAÇÃO METEOROLÓGICA AUTOMATICA DE ILHA DO MEL/PR,1.00,25°29'S,48°19'W,,,3037,
438,ESTAÇÃO METEOROLÓGICA AUTOMATICA DE DIAMANTE DO NORTE/PR,362.00,22°38'S,52°53'W,,,2880,
439,ESTAÇÃO METEOROLÓGICA AUTOMATICA DE PARANAPOEMA/PR,311.00,22°39'S,52°08'W,,,3038,
440,ESTAÇÃO METEOROLÓGICA AUTOMATICA DE PLANALTO/PR,398.00,25°43'S,53°44'W,,,3058,
441,ESTAÇÃO METEOROLÓGICA AUTOMATICA DE CIDADE GAÚCHA/PR,381.00,23°22'S,52°55'W,,,2860,
442,ESTAÇÃO METEOROLÓGICA AUTOMATICA DE JAPIRA/PR,930.00,23°46'S,50°10'W,,,2956,
443,ESTAÇÃO METEOROLÓGICA AUTOMATICA DE VENTANIA/PR,1106.00,24°16'S,50°12'W,,,3175,
444,ESTAÇÃO METEOROLÓGICA AUTOMATICA DE MORRETES/PR,59.00,25°30'S,48°48'W,,,3009,
445,ESTAÇÃO METEOROLÓGICA AUTOMATICA DE SÃO MATEUS DO SUL/PR,788.00,25°50'S,50°22'W,,,3136,
446,ESTAÇÃO METEOROLÓGICA AUTOMATICA DE Gen. CARNEIRO/PR,1018.00,26°23'S,51°21'W,,,2907,
447,ESTAÇÃO METEOROLÓGICA AUTOMATICA DE CLEVELANDIA/PR,980.00,26°25'S,52°20'W,,,2861,
448,ESTAÇÃO METEOROLÓGICA AUTOMATICA DE PORTO ALEGRE/RS,46.97,30°03'S,51°10'W,,,4173,
449,ESTAÇÃO METEOROLÓGICA AUTOMATICA DE RIO GRANDE/RS,2.46,32°01'S,52°06'W,,,4191,
450,ESTAÇÃO METEOROLÓGICA AUTOMATICA DE SANTA MARIA/RS,95.00,29°42'S,53°42'W,,,4213,
451,ESTAÇÃO METEOROLÓGICA AUTOMATICA DE SANT. DO LIVRAMENTO/RS,328.00,30°50'S,55°36'W,,,4219,
452,ESTAÇÃO METEOROLÓGICA AUTOMATICA DE STO. AUGUSTO/RS,550.00,27°51'S,53°47'W,,,4226,
453,ESTAÇÃO METEOROLÓGICA AUTOMATICA DE TORRES/RS,4.66,29°21'S,49°43'W,,,4299,
454,ESTAÇÃO METEOROLÓGICA AUTOMATICA DE URUGUAIANA/RS,62.31,29°50'S,57°04'W,,,4321,
455,ESTAÇÃO METEOROLÓGICA AUTOMATICA DE SANTA ROSA/RS,276.00,27°53'S,54°28'W,,,4215,
456,ESTAÇÃO METEOROLÓGICA AUTOMATICA DE CANGUÇU/RS,464.00,31°24'S,52°42'W,,,3927,
457,ESTAÇÃO METEOROLÓGICA AUTOMATICA DE CAÇAPAVA DO SUL/RS,420.00,30°32'S,53°28'W,,,3907,
458,ESTAÇÃO METEOROLÓGICA AUTOMATICA DE RIO PARDO/RS,111.00,29°52'S,52°22'W,,,4192,
459,ESTAÇÃO METEOROLÓGICA AUTOMATICA DE ALEGRETE/RS,121.00,29°42'S,55°31'W,,,3854,
460,ESTAÇÃO METEOROLÓGICA AUTOMATICA DE BAGÉ/RS,230.00,31°20'S,54°00'W,,,3878,
461,ESTAÇÃO METEOROLÓGICA AUTOMATICA DE ERECHIM/RS,765.00,27°39'S,52°18'W,,,3996,
462,ESTAÇÃO METEOROLÓGICA AUTOMATICA DE S. J. DOS AUSENTES/RS,1244.00,28°45'S,50°03'W,,,4245,
463,ESTAÇÃO METEOROLÓGICA AUTOMATICA DE SÃO BORJA/RS,83.00,28°38'S,56°00'W,,,4229,
464,ESTAÇÃO METEOROLÓGICA AUTOMATICA DE QUARAI/RS,124.00,30°22'S,56°26'W,,,4183,
465,ESTAÇÃO METEOROLÓGICA AUTOMATICA DE SÃO GABRIEL/RS,126.00,30°20'S,54°19'W,,,4233,
466,ESTAÇÃO METEOROLÓGICA AUTOMATICA DE SANTIAGO/RS,394.00,29°11'S,54°53'W,,,4220,
467,ESTAÇÃO METEOROLÓGICA AUTOMATICA DE TRAMANDAI/RS,1.00,30°00'S,50°08'W,,,4300,
468,ESTAÇÃO METEOROLÓGICA AUTOMATICA DE JAGUARÃO/RS,47.00,32°33'S,53°22'W,,,4070,
469,ESTAÇÃO METEOROLÓGICA AUTOMATICA DE SOLEDADE/RS,667.00,28°51'S,52°33'W,,,4284,
470,ESTAÇÃO METEOROLÓGICA AUTOMATICA DE CAMAQUÃ/RS,90.66,30°48'S,51°50'W,,,3914,
471,ESTAÇÃO METEOROLÓGICA AUTOMATICA DE PASSO FUNDO/RS,684.05,28°13'S,52°24'W,,,4153,
472,ESTAÇÃO METEOROLÓGICA AUTOMATICA DE BENTO GONÇALVES/RS,640.00,29°10'S,51°32'W,,,3891,
473,ESTAÇÃO METEOROLÓGICA AUTOMATICA DE LAGOA VERMELHA/RS,842.00,28°13'S,51°30'W,,,4078,
474,ESTAÇÃO METEOROLÓGICA AUTOMATICA DE S. LUIZ GONZAGA/RS,245.11,28°25'S,54°57'W,,,4248,
475,ESTAÇÃO METEOROLÓGICA AUTOMATICA DE CRUZ ALTA/RS,432.00,28°36'S,53°40'W,,,3973,
476,ESTAÇÃO METEOROLÓGICA AUTOMATICA DE FREDERICO WESTPHALEN/RS,490.00,27°23'S,53°24'W,,,4021,
477,ESTAÇÃO METEOROLÓGICA AUTOMATICA DE PALMEIRA DA MISSÕES/RS,631.00,27°55'S,53°19'W,,,4143,
478,ESTAÇÃO METEOROLÓGICA AUTOMATICA DE MOSTARDAS/RS,10.00,31°14'S,50°54'W,,,4112,
479,ESTAÇÃO METEOROLÓGICA AUTOMATICA DE CANELA/RS,830.00,29°22'S,50°49'W,,,3926,
480,ESTAÇÃO METEOROLÓGICA AUTOMATICA DE VACARIA/RS,986.00,28°30'S,50°52'W,,,4322,
481,ESTAÇÃO METEOROLÓGICA AUTOMATICA DE DOM PEDRITO/RS,170.00,30°59'S,53°48'W,,,3984,
482,ESTAÇÃO METEOROLÓGICA AUTOMATICA DE TEUTONIA/RS,81.00,29°27'S,51°49'W,,,4295,
483,ESTAÇÃO METEOROLÓGICA AUTOMATICA DE IBIRUBA/RS,456.00,28°39'S,53°06'W,,,4048,
484,ESTAÇÃO METEOROLÓGICA AUTOMATICA DE CAMPO BOM/RS,24.00,29°40'S,51°03'W,,,3920,
485,ESTAÇÃO METEOROLÓGICA AUTOMATICA DE TUPANCIRETA/RS,462.00,29°89'S,53°82'W,,,4314,
486,ESTAÇÃO METEOROLÓGICA AUTOMATICA DE SÃO VICENTE DO SUL/RS,134.00,29°70'S,54°69'W,,,4265,
487,ESTAÇÃO METEOROLÓGICA AUTOMATICA DE SERAFINA CORREA/RS,134.00,29°70'S,54°69'W,,,4275,
488,ESTAÇÃO METEOROLÓGICA AUTOMATICA DE CHUÍ/RS,13.00,33°45'S,53°21'W,,,3955,
489,ESTAÇÃO METEOROLÓGICA AUTOMATICA DE FLORIANÓPOLIS/SC,1.80,27°36'S,48°36'W,,,4499,
490,ESTAÇÃO METEOROLÓGICA AUTOMATICA DE URUSSANGA/SC,48.00,28°31'S,49°18'W,,,4693,
491,ESTAÇÃO METEOROLÓGICA AUTOMATICA DE SÃO JOAQUIM/SC,1410.00,28°16'S,49°56'W,,,4658,
492,ESTAÇÃO METEOROLÓGICA AUTOMATICA DE NOVO HORIZONTE/SC,960.00,26°24'S,52°51'W,,,4585,
493,ESTAÇÃO METEOROLÓGICA AUTOMATICA DE INDAIAL/SC,86.13,26°54'S,49°16'W,,,4525,
494,ESTAÇÃO METEOROLÓGICA AUTOMATICA DE JOAÇABA/SC,776.00,27°10'S,51°33'W,,,4547,
495,ESTAÇÃO METEOROLÓGICA AUTOMATICA DE BOM JARDIM DA SERRA/SC,1822.00,28°00'S,49°30'W,,,4450,
496,ESTAÇÃO METEOROLÓGICA AUTOMATICA DE DIONÍSIO CERQUEIRA/SC,810.00,26°17'S,53°37'W,,,4491,
497,ESTAÇÃO METEOROLÓGICA AUTOMATICA DE ITAPOÁ/SC,2.00,26°04'S,48°38'W,,,4540,
498,ESTAÇÃO METEOROLÓGICA AUTOMATICA DE SÃO MIGUEL DO OESTE/SC,665.00,26°46'S,53°30'W,,,4666,
499,ESTAÇÃO METEOROLÓGICA AUTOMATICA DE XANXERÊ/SC,889.00,26°56'S,52°24'W,,,4701,
500,ESTAÇÃO METEOROLÓGICA AUTOMATICA DE CAÇADOR/SC,952.00,26°49'S,50°50'W,,,4460,
501,ESTAÇÃO METEOROLÓGICA AUTOMATICA DE CURITIBANOS/SC,982.00,27°17'S,50°36'W,,,4489,
502,ESTAÇÃO METEOROLÓGICA AUTOMATICA DE RIO DO CAMPO/SC,592.00,26°56'S,50°08'W,,,4625,
503,ESTAÇÃO METEOROLÓGICA AUTOMATICA DE RIO NEGRINHO/SC,869.00,26°14'S,49°34'W,,,4630,
504,ESTAÇÃO METEOROLÓGICA AUTOMATICA DE ITUPORANGA/SC,484.00,27°25'S,49°38'W,,,4541,
505,ESTAÇÃO METEOROLÓGICA AUTOMATICA DE MAJOR VIEIRA/SC,808.00,26°23'S,50°21'W,,,4566,
506,ESTAÇÃO METEOROLÓGICA AUTOMATICA DE LAGES/SC,955.00,27°48'S,50°20'W,,,4552,
507,ESTAÇÃO METEOROLÓGICA AUTOMATICA DE SANTA MARTA/SC,52.00,28°36'S,48°48'W,,,4553,
508,ESTAÇÃO METEOROLÓGICA AUTOMATICA DE ARARANGUA/SC,12.00,28°57'S,49°29'W,,,4430,
509,ESTAÇÃO METEOROLÓGICA AUTOMATICA DE ITAJAI/SC,18.00,26°57'S,48°45'W,,,4537,
510,ESTAÇÃO METEOROLÓGICA AUTOMATICA DE RANCHO QUEIMADO/SC,881.00,27°67'S,49°04'W,,,4623,
511,ESTAÇÃO METEOROLÓGICA AUTOMATICA DE MORRETOS/PR,59.00,25°30'S,48°48'W,,,3009,
